[{"OBJECT_NAME":"BANDWAGON-2 OBJECT J","OBJECT_ID":"2024-247J","EPOCH":"2026-03-08T02:40:56.121024","MEAN_MOTION":15.4352622,"ECCENTRICITY":0.00090274,"INCLINATION":44.9996,"RA_OF_ASC_NODE":100.5679,"ARG_OF_PERICENTER":2.942,"MEAN_ANOMALY":357.1521,"EPHEMERIS_TYPE":0,"CLASSIFICATION_TYPE":"U","NORAD_CAT_ID":62385,"ELEMENT_SET_NO":999,"REV_AT_EPOCH":6779,"BSTAR":0.0011029926,"MEAN_MOTION_DOT":0.00050621,"MEAN_MOTION_DDOT":0},{"OBJECT_NAME":"BREEZE-KM R\/B","OBJECT_ID":"2018-039B","EPOCH":"2026-03-09T22:26:32.085312","MEAN_MOTION":15.28213901,"ECCENTRICITY":0.01527689,"INCLINATION":98.674,"RA_OF_ASC_NODE":182.4943,"ARG_OF_PERICENTER":174.8677,"MEAN_ANOMALY":185.417,"EPHEMERIS_TYPE":0,"CLASSIFICATION_TYPE":"U","NORAD_CAT_ID":43438,"ELEMENT_SET_NO":999,"REV_AT_EPOCH":43229,"BSTAR":0.00046949249,"MEAN_MOTION_DOT":0.00018266,"MEAN_MOTION_DDOT":0}]
